[
    {
        "Altitude(m)": 569314.5199378941,
        "Argument of Periapsis(deg)": 0.0,
        "Eccentricity": 0.0,
        "Inclination(deg)": 53.0,
        "Latitude(deg)": -46.77319839439466,
        "Longitude(deg)": 147.90591703659578,
        "Mean Anomaly(deg)": 245.4545,
        "RAAN(deg)": 15.0,
        "Satellite Name": "Starlink Shell 1 81",
        "Satellite Number": 81,
        "Semi-Major Axis(m)": 6931778.249405717,
        "Time(s)": 0
    },
    {
        "Altitude(m)": 569436.017878252,
        "Argument of Periapsis(deg)": 0.00034857847951123687,
        "Eccentricity": 0.0,
        "Inclination(deg)": 53.0,
        "Latitude(deg)": -47.07201379591312,
        "Longitude(deg)": 148.66651531157913,
        "Mean Anomaly(deg)": 246.0813312035567,
        "RAAN(deg)": 14.999481229922527,
        "Satellite Name": "Starlink Shell 1 81",
        "Satellite Number": 81,
        "Semi-Major Axis(m)": 6931778.249405717,
        "Time(s)": 10
    },
    {
        "Altitude(m)": 569554.9930031397,
        "Argument of Periapsis(deg)": 0.0006971569590224737,
        "Eccentricity": 0.0,
        "Inclination(deg)": 53.0,
        "Latitude(deg)": -47.36513415767816,
        "Longitude(deg)": 149.43602120331315,
        "Mean Anomaly(deg)": 246.7081624071134,
        "RAAN(deg)": 14.998962459845055,
        "Satellite Name": "Starlink Shell 1 81",
        "Satellite Number": 81,
        "Semi-Major Axis(m)": 6931778.249405717,
        "Time(s)": 20
    },
    {
        "Altitude(m)": 569671.3982123258,
        "Argument of Periapsis(deg)": 0.0010457354385337105,
        "Eccentricity": 0.0,
        "Inclination(deg)": 53.0,
        "Latitude(deg)": -47.65243895043831,
        "Longitude(deg)": 150.21444954188985,
        "Mean Anomaly(deg)": 247.33499361067013,
        "RAAN(deg)": 14.99844368976758,
        "Satellite Name": "Starlink Shell 1 81",
        "Satellite Number": 81,
        "Semi-Major Axis(m)": 6931778.249405717,
        "Time(s)": 30
    },
    {
        "Altitude(m)": 569785.1873989331,
        "Argument of Periapsis(deg)": 0.0013943139180449475,
        "Eccentricity": 0.0,
        "Inclination(deg)": 53.0,
        "Latitude(deg)": -47.93380682752624,
        "Longitude(deg)": 151.00180565866515,
        "Mean Anomaly(deg)": 247.96182481422687,
        "RAAN(deg)": 14.997924919690107,
        "Satellite Name": "Starlink Shell 1 81",
        "Satellite Number": 81,
        "Semi-Major Axis(m)": 6931778.249405717,
        "Time(s)": 40
    },
    {
        "Altitude(m)": 569896.3154695649,
        "Argument of Periapsis(deg)": 0.0017428923975561844,
        "Eccentricity": 0.0,
        "Inclination(deg)": 53.0,
        "Latitude(deg)": -48.20911576451308,
        "Longitude(deg)": 151.79808382890567,
        "Mean Anomaly(deg)": 248.58865601778353,
        "RAAN(deg)": 14.997406149612633,
        "Satellite Name": "Starlink Shell 1 81",
        "Satellite Number": 81,
        "Semi-Major Axis(m)": 6931778.249405717,
        "Time(s)": 50
    },
    {
        "Altitude(m)": 570004.7383640385,
        "Argument of Periapsis(deg)": 0.002091470877067421,
        "Eccentricity": 0.0,
        "Inclination(deg)": 53.0,
        "Latitude(deg)": -48.478243209697716,
        "Longitude(deg)": 152.6032672294711,
        "Mean Anomaly(deg)": 249.21548722134028,
        "RAAN(deg)": 14.996887379535163,
        "Satellite Name": "Starlink Shell 1 81",
        "Satellite Number": 81,
        "Semi-Major Axis(m)": 6931778.249405717,
        "Time(s)": 60
    },
    {
        "Altitude(m)": 570110.4130746321,
        "Argument of Periapsis(deg)": 0.0024400493565786582,
        "Eccentricity": 0.0,
        "Inclination(deg)": 53.0,
        "Latitude(deg)": -48.74106624554699,
        "Longitude(deg)": 153.4173279020452,
        "Mean Anomaly(deg)": 249.842318424897,
        "RAAN(deg)": 14.99636860945769,
        "Satellite Name": "Starlink Shell 1 81",
        "Satellite Number": 81,
        "Semi-Major Axis(m)": 6931778.249405717,
        "Time(s)": 70
    },
    {
        "Altitude(m)": 570213.2976648484,
        "Argument of Periapsis(deg)": 0.002788627836089895,
        "Eccentricity": 0.0,
        "Inclination(deg)": 53.0,
        "Latitude(deg)": -48.99746176114044,
        "Longitude(deg)": 154.24022521271493,
        "Mean Anomaly(deg)": 250.4691496284537,
        "RAAN(deg)": 14.995849839380215,
        "Satellite Name": "Starlink Shell 1 81",
        "Satellite Number": 81,
        "Semi-Major Axis(m)": 6931778.249405717,
        "Time(s)": 80
    },
    {
        "Altitude(m)": 570313.3512877298,
        "Argument of Periapsis(deg)": 0.0031372063156011316,
        "Eccentricity": 0.0,
        "Inclination(deg)": 53.0,
        "Latitude(deg)": -49.24730663560763,
        "Longitude(deg)": 155.07190583758563,
        "Mean Anomaly(deg)": 251.09598083201038,
        "RAAN(deg)": 14.995331069302743,
        "Satellite Name": "Starlink Shell 1 81",
        "Satellite Number": 81,
        "Semi-Major Axis(m)": 6931778.249405717,
        "Time(s)": 90
    },
    {
        "Altitude(m)": 570410.534203669,
        "Argument of Periapsis(deg)": 0.0034857847951123688,
        "Eccentricity": 0.0,
        "Inclination(deg)": 53.0,
        "Latitude(deg)": -49.4904779324587,
        "Longitude(deg)": 155.91230376575768,
        "Mean Anomaly(deg)": 251.72281203556716,
        "RAAN(deg)": 14.99481229922527,
        "Satellite Name": "Starlink Shell 1 81",
        "Satellite Number": 81,
        "Semi-Major Axis(m)": 6931778.249405717,
        "Time(s)": 100
    },
    {
        "Altitude(m)": 570504.8077977335,
        "Argument of Periapsis(deg)": 0.003834363274623606,
        "Eccentricity": 0.0,
        "Inclination(deg)": 53.0,
        "Latitude(deg)": -49.72685310462545,
        "Longitude(deg)": 156.7613388112346,
        "Mean Anomaly(deg)": 252.34964323912385,
        "RAAN(deg)": 14.994293529147798,
        "Satellite Name": "Starlink Shell 1 81",
        "Satellite Number": 81,
        "Semi-Major Axis(m)": 6931778.249405717,
        "Time(s)": 110
    },
    {
        "Altitude(m)": 570596.1345964842,
        "Argument of Periapsis(deg)": 0.004182941754134842,
        "Eccentricity": 0.0,
        "Inclination(deg)": 53.0,
        "Latitude(deg)": -49.956310209942686,
        "Longitude(deg)": 157.6189166641543,
        "Mean Anomaly(deg)": 252.97647444268057,
        "RAAN(deg)": 14.993774759070327,
        "Satellite Name": "Starlink Shell 1 81",
        "Satellite Number": 81,
        "Semi-Major Axis(m)": 6931778.249405717,
        "Time(s)": 120
    },
    {
        "Altitude(m)": 570684.478284311,
        "Argument of Periapsis(deg)": 0.004531520233646079,
        "Eccentricity": 0.0,
        "Inclination(deg)": 53.0,
        "Latitude(deg)": -50.17872813669447,
        "Longitude(deg)": 158.48492897329567,
        "Mean Anomaly(deg)": 253.6033056462373,
        "RAAN(deg)": 14.993255988992853,
        "Satellite Name": "Starlink Shell 1 81",
        "Satellite Number": 81,
        "Semi-Major Axis(m)": 6931778.249405717,
        "Time(s)": 130
    },
    {
        "Altitude(m)": 570769.8037192157,
        "Argument of Periapsis(deg)": 0.0048800987131573164,
        "Eccentricity": 0.0,
        "Inclination(deg)": 53.0,
        "Latitude(deg)": -50.393986838746194,
        "Longitude(deg)": 159.3592519519593,
        "Mean Anomaly(deg)": 254.23013684979398,
        "RAAN(deg)": 14.992737218915378,
        "Satellite Name": "Starlink Shell 1 81",
        "Satellite Number": 81,
        "Semi-Major Axis(m)": 6931778.249405717,
        "Time(s)": 140
    },
    {
        "Altitude(m)": 570852.0769481346,
        "Argument of Periapsis(deg)": 0.005228677192668553,
        "Eccentricity": 0.0,
        "Inclination(deg)": 53.0,
        "Latitude(deg)": -50.60196757968143,
        "Longitude(deg)": 160.24174653802018,
        "Mean Anomaly(deg)": 254.8569680533507,
        "RAAN(deg)": 14.992218448837905,
        "Satellite Name": "Starlink Shell 1 81",
        "Satellite Number": 81,
        "Semi-Major Axis(m)": 6931778.249405717,
        "Time(s)": 150
    },
    {
        "Altitude(m)": 570931.2652216717,
        "Argument of Periapsis(deg)": 0.00557725567217979,
        "Eccentricity": 0.0,
        "Inclination(deg)": 53.0,
        "Latitude(deg)": -50.80255318524207,
        "Longitude(deg)": 161.1322586003792,
        "Mean Anomaly(deg)": 255.4837992569074,
        "RAAN(deg)": 14.991699678760435,
        "Satellite Name": "Starlink Shell 1 81",
        "Satellite Number": 81,
        "Semi-Major Axis(m)": 6931778.249405717,
        "Time(s)": 160
    },
    {
        "Altitude(m)": 571007.3370083651,
        "Argument of Periapsis(deg)": 0.0059258341516910265,
        "Eccentricity": 0.0,
        "Inclination(deg)": 53.0,
        "Latitude(deg)": -50.99562830325724,
        "Longitude(deg)": 162.03061768402358,
        "Mean Anomaly(deg)": 256.11063046046417,
        "RAAN(deg)": 14.991180908682962,
        "Satellite Name": "Starlink Shell 1 81",
        "Satellite Number": 81,
        "Semi-Major Axis(m)": 6931778.249405717,
        "Time(s)": 170
    },
    {
        "Altitude(m)": 571080.262008365,
        "Argument of Periapsis(deg)": 0.006274412631202263,
        "Eccentricity": 0.0,
        "Inclination(deg)": 53.0,
        "Latitude(deg)": -51.181079670135375,
        "Longitude(deg)": 162.93663732443395,
        "Mean Anomaly(deg)": 256.7374616640208,
        "RAAN(deg)": 14.990662138605488,
        "Satellite Name": "Starlink Shell 1 81",
        "Satellite Number": 81,
        "Semi-Major Axis(m)": 6931778.249405717,
        "Time(s)": 180
    }
]